[{"OBJECT_NAME":"STARLINK-6043","OBJECT_ID":"2023-064S","EPOCH":"2026-03-09T14:14:21.369696","MEAN_MOTION":14.98324758,"ECCENTRICITY":0.000321,"INCLINATION":70.0007,"RA_OF_ASC_NODE":144.6208,"ARG_OF_PERICENTER":270.9566,"MEAN_ANOMALY":89.1225,"EPHEMERIS_TYPE":0,"CLASSIFICATION_TYPE":"U","NORAD_CAT_ID":56464,"ELEMENT_SET_NO":999,"REV_AT_EPOCH":15523,"BSTAR":-4.9377e-5,"MEAN_MOTION_DOT":-6.82e-6,"MEAN_MOTION_DDOT":0},{"OBJECT_NAME":"METHANESAT","OBJECT_ID":"2024-043D","EPOCH":"2026-03-09T22:12:33.121440","MEAN_MOTION":14.97588653,"ECCENTRICITY":0.00100526,"INCLINATION":97.8288,"RA_OF_ASC_NODE":199.6058,"ARG_OF_PERICENTER":350.2517,"MEAN_ANOMALY":9.8508,"EPHEMERIS_TYPE":0,"CLASSIFICATION_TYPE":"U","NORAD_CAT_ID":59101,"ELEMENT_SET_NO":999,"REV_AT_EPOCH":10979,"BSTAR":0.00032562202,"MEAN_MOTION_DOT":3.748e-5,"MEAN_MOTION_DDOT":0}]
